OBJECT_NAME,OBJECT_ID,EPOCH,MEAN_MOTION,ECCENTRICITY,INCLINATION,RA_OF_ASC_NODE,ARG_OF_PERICENTER,MEAN_ANOMALY,EPHEMERIS_TYPE,CLASSIFICATION_TYPE,NORAD_CAT_ID,ELEMENT_SET_NO,REV_AT_EPOCH,BSTAR,MEAN_MOTION_DOT,MEAN_MOTION_DDOT
APRIZESAT 2,2004-025A,2026-07-21T09:05:48.038208,14.38049640,.01063261,98.1049,6.4292,146.3043,214.4965,0,U,28366,999,15655,.62128024E-4,.159E-5,0
SAUDICOMSAT 1,2004-025D,2026-07-21T10:59:11.066208,14.55496472,.00308494,98.5780,213.5156,278.9484,80.8221,0,U,28369,999,16911,.60936613E-4,.217E-5,0
SAUDICOMSAT 2,2004-025E,2026-07-21T00:10:26.590944,14.49996281,.00559982,98.6644,215.2099,156.1568,204.2238,0,U,28370,999,16500,.47486334E-4,.138E-5,0
APRIZESAT 1,2004-025G,2026-07-21T11:30:22.524768,14.51794536,.00455368,98.6311,214.1391,52.0752,308.4546,0,U,28372,999,16688,.56508617E-4,.181E-5,0
NANOSAT-1,2004-049B,2026-07-21T15:28:40.137600,14.80219196,.0004255,98.2318,340.1578,164.4635,195.6708,0,U,28493,999,16054,.10272631E-3,.726E-5,0
SAUDICOMSAT 7,2007-012C,2026-07-21T08:57:20.302560,14.66141132,.00570307,98.3804,177.2092,89.3731,271.4006,0,U,31119,999,2744,.82671347E-4,.412E-5,0
SAUDICOMSAT 6,2007-012E,2026-07-21T08:45:51.069888,14.62587679,.00708003,98.4122,170.5233,219.6299,139.9715,0,U,31121,999,2518,.55995575E-4,.241E-5,0
SAUDICOMSAT 5,2007-012H,2026-07-21T15:20:45.877632,14.68198062,.00478219,98.3515,178.2215,18.8468,341.4493,0,U,31124,999,2865,.9558584E-4,.506E-5,0
SAUDICOMSAT 3,2007-012J,2026-07-21T14:35:45.098304,14.70756174,.00378937,98.3170,178.7354,304.4406,55.3221,0,U,31125,999,2988,.95658362E-4,.535E-5,0
SAUDICOMSAT 4,2007-012L,2026-07-21T14:08:17.859840,14.64539345,.00639812,98.4009,175.8660,149.8839,210.6066,0,U,31127,999,2632,.69432175E-4,.326E-5,0
APRIZESAT 4,2009-041D,2026-07-21T04:11:42.542016,14.83919375,.00426075,98.1399,278.1710,209.7430,150.1361,0,U,35684,999,91640,.6438153E-4,.484E-5,0
APRIZESAT 3,2009-041F,2026-07-21T09:42:44.748576,14.96318257,.00606942,98.2107,357.2780,315.0936,44.5383,0,U,35686,999,92149,.26317473E-4,.238E-5,0
S-NET D,2018-014G,2026-07-21T07:17:42.551808,15.16951656,.0006199,97.5322,106.8824,257.9597,102.0942,0,U,43186,999,46393,.17569469E-3,.34E-4,0
S-NET B,2018-014H,2026-07-21T07:35:10.276224,15.16921402,.00068887,97.5327,106.8821,252.2789,107.7693,0,U,43187,999,46393,.17233288E-3,.3331E-4,0
S-NET A,2018-014J,2026-07-21T05:40:50.143872,15.16959428,.00067615,97.5337,107.0185,253.5087,106.5404,0,U,43188,999,46392,.1748403E-3,.3384E-4,0
S-NET C,2018-014K,2026-07-21T06:06:01.871712,15.16911843,.00082283,97.5354,107.1158,244.8903,115.1477,0,U,43189,999,46247,.16771264E-3,.3239E-4,0
SALSAT,2020-068K,2026-07-21T06:49:18.463008,15.30225780,.00098552,97.8867,207.4380,171.6754,188.4651,0,U,46495,999,32057,.19458409E-3,.5612E-4,0
OOV-CUBE (TUBSAT-30),2024-128F,2026-07-21T10:54:48.644352,15.02891484,.00402885,61.9942,106.0728,141.4397,218.9585,0,U,60240,999,11126,.12029468E-3,.1434E-4,0
LPNTSAT-001 (IOD-1),2026-065A,2026-07-21T11:19:40.893312,15.18689238,.00147742,97.3972,82.2514,242.1794,117.7944,0,U,68408,999,1746,.88218233E-4,.1766E-4,0
CHUANG XIN 26 (CX-26),2026-158A,2026-07-21T13:52:54.181632,14.25124333,.00049557,49.9828,253.4795,321.1216,38.9340,0,U,69972,999,161,-.2372722E-5,-.166E-5,0
