{"epoch":1784710044,"count":18256,"objects":[{"id":"28366","name":"APRIZESAT 2","type":"PAYLOAD","l1":"1 28366U 04025A   26202.37902822  .00000159  00000-0  62128-4 0  9999","l2":"2 28366  98.1049   6.4292 0106326 146.3043 214.4965 14.38049640156552"},{"id":"28369","name":"SAUDICOMSAT 1","type":"PAYLOAD","l1":"1 28369U 04025D   26202.45776697  .00000217  00000-0  60937-4 0  9991","l2":"2 28369  98.5780 213.5156 0030849 278.9484  80.8221 14.55496472169112"},{"id":"28370","name":"SAUDICOMSAT 2","type":"PAYLOAD","l1":"1 28370U 04025E   26202.00725221  .00000138  00000-0  47486-4 0  9997","l2":"2 28370  98.6644 215.2099 0055998 156.1568 204.2238 14.49996281165001"},{"id":"28372","name":"APRIZESAT 1","type":"PAYLOAD","l1":"1 28372U 04025G   26202.47942737  .00000181  00000-0  56509-4 0  9997","l2":"2 28372  98.6311 214.1391 0045537  52.0752 308.4546 14.51794536166882"},{"id":"28493","name":"NANOSAT(1)","type":"PAYLOAD","l1":"1 28493U 04049B   26202.64490900  .00000726  00000-0  10273-3 0  9998","l2":"2 28493  98.2318 340.1578 0004255 164.4635 195.6708 14.80219196160545"},{"id":"31119","name":"SAUDICOMSAT 7","type":"PAYLOAD","l1":"1 31119U 07012C   26202.37315165  .00000412  00000-0  82671-4 0  9993","l2":"2 31119  98.3804 177.2092 0057031  89.3731 271.4006 14.66141132 27440"},{"id":"31121","name":"SAUDICOMSAT 6","type":"PAYLOAD","l1":"1 31121U 07012E   26202.36517442  .00000241  00000-0  55996-4 0  9997","l2":"2 31121  98.4122 170.5233 0070800 219.6299 139.9715 14.62587679 25186"},{"id":"31124","name":"SAUDICOMSAT 5","type":"PAYLOAD","l1":"1 31124U 07012H   26202.63941988  .00000506  00000-0  95586-4 0  9999","l2":"2 31124  98.3515 178.2215 0047822  18.8468 341.4493 14.68198062 28652"},{"id":"31125","name":"SAUDICOMSAT 3","type":"PAYLOAD","l1":"1 31125U 07012J   26202.60816086  .00000535  00000-0  95658-4 0  9999","l2":"2 31125  98.3170 178.7354 0037894 304.4406  55.3221 14.70756174 29886"},{"id":"31127","name":"SAUDICOMSAT 4","type":"PAYLOAD","l1":"1 31127U 07012L   26202.58909560  .00000326  00000-0  69432-4 0  9997","l2":"2 31127  98.4009 175.8660 0063981 149.8839 210.6066 14.64539345 26326"},{"id":"35684","name":"APRIZESAT 4","type":"PAYLOAD","l1":"1 35684U 09041D   26202.17479794  .00000484  00000-0  64382-4 0  9993","l2":"2 35684  98.1399 278.1710 0042608 209.7430 150.1361 14.83919375916405"},{"id":"35686","name":"APRIZESAT 3","type":"PAYLOAD","l1":"1 35686U 09041F   26202.40468459  .00000238  00000-0  26317-4 0  9990","l2":"2 35686  98.2107 357.2780 0060694 315.0936  44.5383 14.96318257921499"},{"id":"43186","name":"S-NET D","type":"PAYLOAD","l1":"1 43186U 18014G   26202.30396472  .00003400  00000-0  17569-3 0  9990","l2":"2 43186  97.5322 106.8824 0006199 257.9597 102.0942 15.16951656463938"},{"id":"43187","name":"S-NET B","type":"PAYLOAD","l1":"1 43187U 18014H   26202.31609116  .00003331  00000-0  17233-3 0  9995","l2":"2 43187  97.5327 106.8821 0006889 252.2789 107.7693 15.16921402463939"},{"id":"43188","name":"S-NET A","type":"PAYLOAD","l1":"1 43188U 18014J   26202.23669148  .00003384  00000-0  17484-3 0  9994","l2":"2 43188  97.5337 107.0185 0006762 253.5087 106.5404 15.16959428463927"},{"id":"43189","name":"S-NET C","type":"PAYLOAD","l1":"1 43189U 18014K   26202.25418833  .00003239  00000-0  16771-3 0  9997","l2":"2 43189  97.5354 107.1158 0008228 244.8903 115.1477 15.16911843462471"},{"id":"46495","name":"SALSAT","type":"PAYLOAD","l1":"1 46495U 20068K   26202.28424147  .00005612  00000-0  19458-3 0  9992","l2":"2 46495  97.8867 207.4380 0009855 171.6754 188.4651 15.30225780320570"},{"id":"60240","name":"OOV-CUBE","type":"PAYLOAD","l1":"1 60240U 24128F   26202.45472968  .00001434  00000-0  12029-3 0  9995","l2":"2 60240  61.9942 106.0728 0040289 141.4397 218.9585 15.02891484111262"},{"id":"68408","name":"LPNTSAT-001","type":"PAYLOAD","l1":"1 68408U 26065A   26202.47200108  .00001766  00000-0  88218-4 0  9990","l2":"2 68408  97.3972  82.2514 0014774 242.1794 117.7944 15.18689238 17461"},{"id":"69972","name":"CHUANG XIN 26 (CX-26)","type":"PAYLOAD","l1":"1 69972U 26158A   26202.57840488 -.00000166  00000-0 -23727-5 0  9992","l2":"2 69972  49.9828 253.4795 0004956 321.1216  38.9340 14.25124333  1613"}]}